ONEWEB-0634             
1 56075U 23043AF  25138.79165555  .00000069  00000+0  14806-3 0  9993
2 56075  87.9056 337.8391 0002020  97.0066 263.1294 13.15548869104547
ONEWEB-0636             
1 56077U 23043AH  25138.77897769  .00000178  00000+0  43926-3 0  9998
2 56077  87.9036 337.8422 0001735  80.8187 279.3139 13.15548291104555
ONEWEB-0651             
1 56080U 23043AL  25138.91525183  .00000080  00000+0  17726-3 0  9997
2 56080  87.9053 337.8107 0001886  78.9665 281.1677 13.15548503105784
ONEWEB-0718             
1 56081U 23043AM  25138.91049299  .00000092  00000+0  21146-3 0  9991
2 56081  87.9053 337.7953 0002183  97.6487 262.4892 13.15549537104591
ONEWEB-0561             
1 56710U 23068A   25138.88367649  .00000055  00000+0  10341-3 0  9999
2 56710  87.9263 352.9897 0001588  68.5643 291.5660 13.20772983 97459
